[
    {
        "Altitude(m)": 704234.8651929527,
        "Argument of Periapsis(deg)": 0.004556048474650827,
        "Eccentricity": 0.0,
        "Inclination(deg)": 45.0,
        "Latitude(deg)": 29.799475987047234,
        "Longitude(deg)": -80.01469060958077,
        "Mean Anomaly(deg)": -224.47761334100767,
        "RAAN(deg)": 234.99569922341675,
        "Satellite Name": "Constellation 1 1042",
        "Satellite Number": 1042,
        "Semi-Major Axis(m)": 7083131.272910544,
        "Time(s)": 76
    },
    {
        "Altitude(m)": 704229.1609928525,
        "Argument of Periapsis(deg)": 0.004615996480896233,
        "Eccentricity": 0.0,
        "Inclination(deg)": 45.0,
        "Latitude(deg)": 29.76401665004292,
        "Longitude(deg)": -79.96198030982305,
        "Mean Anomaly(deg)": -224.4169122007578,
        "RAAN(deg)": 234.99564263425114,
        "Satellite Name": "Constellation 1 1042",
        "Satellite Number": 1042,
        "Semi-Major Axis(m)": 7083131.272910544,
        "Time(s)": 77
    },
    {
        "Altitude(m)": 704223.461367793,
        "Argument of Periapsis(deg)": 0.004675944487141638,
        "Eccentricity": 0.0,
        "Inclination(deg)": 45.0,
        "Latitude(deg)": 29.728532744154677,
        "Longitude(deg)": -79.90931000308933,
        "Mean Anomaly(deg)": -224.35621106050786,
        "RAAN(deg)": 234.99558604508556,
        "Satellite Name": "Constellation 1 1042",
        "Satellite Number": 1042,
        "Semi-Major Axis(m)": 7083131.272910544,
        "Time(s)": 78
    },
    {
        "Altitude(m)": 704217.7663570738,
        "Argument of Periapsis(deg)": 0.004735892493387044,
        "Eccentricity": 0.0,
        "Inclination(deg)": 45.0,
        "Latitude(deg)": 29.69302432126331,
        "Longitude(deg)": -79.85667963134937,
        "Mean Anomaly(deg)": -224.29550992025796,
        "RAAN(deg)": 234.99552945592,
        "Satellite Name": "Constellation 1 1042",
        "Satellite Number": 1042,
        "Semi-Major Axis(m)": 7083131.272910544,
        "Time(s)": 79
    },
    {
        "Altitude(m)": 704212.075999959,
        "Argument of Periapsis(deg)": 0.004795840499632449,
        "Eccentricity": 0.0,
        "Inclination(deg)": 45.0,
        "Latitude(deg)": 29.65749143317706,
        "Longitude(deg)": -79.80408913651961,
        "Mean Anomaly(deg)": -224.23480878000805,
        "RAAN(deg)": 234.99547286675445,
        "Satellite Name": "Constellation 1 1042",
        "Satellite Number": 1042,
        "Semi-Major Axis(m)": 7083131.272910544,
        "Time(s)": 80
    },
    {
        "Altitude(m)": 704206.3903357324,
        "Argument of Periapsis(deg)": 0.004855788505877855,
        "Eccentricity": 0.0,
        "Inclination(deg)": 45.0,
        "Latitude(deg)": 29.621934131631626,
        "Longitude(deg)": -79.75153846046388,
        "Mean Anomaly(deg)": -224.17410763975812,
        "RAAN(deg)": 234.99541627758884,
        "Satellite Name": "Constellation 1 1042",
        "Satellite Number": 1042,
        "Semi-Major Axis(m)": 7083131.272910544,
        "Time(s)": 81
    },
    {
        "Altitude(m)": 704200.7094036505,
        "Argument of Periapsis(deg)": 0.00491573651212326,
        "Eccentricity": 0.0,
        "Inclination(deg)": 45.0,
        "Latitude(deg)": 29.586352468290265,
        "Longitude(deg)": -79.69902771309084,
        "Mean Anomaly(deg)": -224.11340649950827,
        "RAAN(deg)": 234.9953596884233,
        "Satellite Name": "Constellation 1 1042",
        "Satellite Number": 1042,
        "Semi-Major Axis(m)": 7083131.272910544,
        "Time(s)": 82
    },
    {
        "Altitude(m)": 704195.0332429727,
        "Argument of Periapsis(deg)": 0.004975684518368666,
        "Eccentricity": 0.0,
        "Inclination(deg)": 45.0,
        "Latitude(deg)": 29.550746494743766,
        "Longitude(deg)": -79.64655649996735,
        "Mean Anomaly(deg)": -224.0527053592584,
        "RAAN(deg)": 234.9953030992577,
        "Satellite Name": "Constellation 1 1042",
        "Satellite Number": 1042,
        "Semi-Major Axis(m)": 7083131.272910544,
        "Time(s)": 83
    },
    {
        "Altitude(m)": 704189.361892954,
        "Argument of Periapsis(deg)": 0.005035632524614072,
        "Eccentricity": 0.0,
        "Inclination(deg)": 45.0,
        "Latitude(deg)": 29.51511626251057,
        "Longitude(deg)": -79.5941249309,
        "Mean Anomaly(deg)": -223.99200421900846,
        "RAAN(deg)": 234.99524651009216,
        "Satellite Name": "Constellation 1 1042",
        "Satellite Number": 1042,
        "Semi-Major Axis(m)": 7083131.272910544,
        "Time(s)": 84
    },
    {
        "Altitude(m)": 704183.6953928359,
        "Argument of Periapsis(deg)": 0.0050955805308594785,
        "Eccentricity": 0.0,
        "Inclination(deg)": 45.0,
        "Latitude(deg)": 29.479461823036765,
        "Longitude(deg)": -79.54173294754865,
        "Mean Anomaly(deg)": -223.9313030787586,
        "RAAN(deg)": 234.9951899209266,
        "Satellite Name": "Constellation 1 1042",
        "Satellite Number": 1042,
        "Semi-Major Axis(m)": 7083131.272910544,
        "Time(s)": 85
    },
    {
        "Altitude(m)": 704178.0337818598,
        "Argument of Periapsis(deg)": 0.005155528537104883,
        "Eccentricity": 0.0,
        "Inclination(deg)": 45.0,
        "Latitude(deg)": 29.44378322769608,
        "Longitude(deg)": -79.48938049152379,
        "Mean Anomaly(deg)": -223.87060193850863,
        "RAAN(deg)": 234.995133331761,
        "Satellite Name": "Constellation 1 1042",
        "Satellite Number": 1042,
        "Semi-Major Axis(m)": 7083131.272910544,
        "Time(s)": 86
    },
    {
        "Altitude(m)": 704172.3770992476,
        "Argument of Periapsis(deg)": 0.0052154765433502885,
        "Eccentricity": 0.0,
        "Inclination(deg)": 45.0,
        "Latitude(deg)": 29.40808052779015,
        "Longitude(deg)": -79.43706750438706,
        "Mean Anomaly(deg)": -223.8099007982588,
        "RAAN(deg)": 234.99507674259544,
        "Satellite Name": "Constellation 1 1042",
        "Satellite Number": 1042,
        "Semi-Major Axis(m)": 7083131.272910544,
        "Time(s)": 87
    },
    {
        "Altitude(m)": 704166.7253842273,
        "Argument of Periapsis(deg)": 0.005275424549595694,
        "Eccentricity": 0.0,
        "Inclination(deg)": 45.0,
        "Latitude(deg)": 29.37235377454814,
        "Longitude(deg)": -79.38479392765194,
        "Mean Anomaly(deg)": -223.74919965800888,
        "RAAN(deg)": 234.99502015342986,
        "Satellite Name": "Constellation 1 1042",
        "Satellite Number": 1042,
        "Semi-Major Axis(m)": 7083131.272910544,
        "Time(s)": 88
    },
    {
        "Altitude(m)": 704161.0786760112,
        "Argument of Periapsis(deg)": 0.0053353725558411,
        "Eccentricity": 0.0,
        "Inclination(deg)": 45.0,
        "Latitude(deg)": 29.336603019127132,
        "Longitude(deg)": -79.33255987088123,
        "Mean Anomaly(deg)": -223.68849851775894,
        "RAAN(deg)": 234.9949635642643,
        "Satellite Name": "Constellation 1 1042",
        "Satellite Number": 1042,
        "Semi-Major Axis(m)": 7083131.272910544,
        "Time(s)": 89
    },
    {
        "Altitude(m)": 704155.4370138051,
        "Argument of Periapsis(deg)": 0.005395320562086505,
        "Eccentricity": 0.0,
        "Inclination(deg)": 45.0,
        "Latitude(deg)": 29.300828312612314,
        "Longitude(deg)": -79.2803649393003,
        "Mean Anomaly(deg)": -223.6277973775091,
        "RAAN(deg)": 234.9949069750987,
        "Satellite Name": "Constellation 1 1042",
        "Satellite Number": 1042,
        "Semi-Major Axis(m)": 7083131.272910544,
        "Time(s)": 90
    },
    {
        "Altitude(m)": 704149.8004368021,
        "Argument of Periapsis(deg)": 0.00545526856833191,
        "Eccentricity": 0.0,
        "Inclination(deg)": 45.0,
        "Latitude(deg)": 29.265029706016346,
        "Longitude(deg)": -79.2282092423787,
        "Mean Anomaly(deg)": -223.5670962372592,
        "RAAN(deg)": 234.99485038593315,
        "Satellite Name": "Constellation 1 1042",
        "Satellite Number": 1042,
        "Semi-Major Axis(m)": 7083131.272910544,
        "Time(s)": 91
    },
    {
        "Altitude(m)": 704144.168984195,
        "Argument of Periapsis(deg)": 0.005515216574577317,
        "Eccentricity": 0.0,
        "Inclination(deg)": 45.0,
        "Latitude(deg)": 29.22920725028018,
        "Longitude(deg)": -79.17609272144358,
        "Mean Anomaly(deg)": -223.50639509700932,
        "RAAN(deg)": 234.9947937967676,
        "Satellite Name": "Constellation 1 1042",
        "Satellite Number": 1042,
        "Semi-Major Axis(m)": 7083131.272910544,
        "Time(s)": 92
    },
    {
        "Altitude(m)": 704138.5426951641,
        "Argument of Periapsis(deg)": 0.005575164580822722,
        "Eccentricity": 0.0,
        "Inclination(deg)": 45.0,
        "Latitude(deg)": 29.19336099627263,
        "Longitude(deg)": -79.12401531777704,
        "Mean Anomaly(deg)": -223.44569395675938,
        "RAAN(deg)": 234.99473720760204,
        "Satellite Name": "Constellation 1 1042",
        "Satellite Number": 1042,
        "Semi-Major Axis(m)": 7083131.272910544,
        "Time(s)": 93
    },
    {
        "Altitude(m)": 704132.9216088763,
        "Argument of Periapsis(deg)": 0.005635112587068129,
        "Eccentricity": 0.0,
        "Inclination(deg)": 45.0,
        "Latitude(deg)": 29.1574909947907,
        "Longitude(deg)": -79.07197697261668,
        "Mean Anomaly(deg)": -223.38499281650948,
        "RAAN(deg)": 234.99468061843646,
        "Satellite Name": "Constellation 1 1042",
        "Satellite Number": 1042,
        "Semi-Major Axis(m)": 7083131.272910544,
        "Time(s)": 94
    }
]